{
  "type": "FeatureCollection",
  "features": [
    {
      "type": "Feature",
      "properties": {
        "norad_id": 30334,
        "name": "FENGYUN 1C DEB",
        "group": "fengyun-1c-debris",
        "lat": 22.881672672159198,
        "lon": 76.29898671599304,
        "alt_km": 823.0307241104456,
        "timestamp": "2025-12-06T09:34:17.189404+00:00",
        "meta_object_name": "FENGYUN 1C DEB",
        "meta_object_id": "1999-025AAV",
        "meta_epoch": "2025-12-05T18:32:43.103040",
        "meta_mean_motion": 13.92343961,
        "meta_eccentricity": 0.01448011,
        "meta_inclination": 99.0217,
        "meta_ra_of_asc_node": 79.5339,
        "meta_arg_of_pericenter": 1.0989,
        "meta_mean_anomaly": 124.9955,
        "meta_ephemeris_type": 0,
        "meta_classification_type": "U",
        "meta_norad_cat_id": 30334,
        "meta_element_set_no": 999,
        "meta_rev_at_epoch": 95124,
        "meta_bstar": 0.0018129083,
        "meta_mean_motion_dot": 2.494e-05,
        "meta_mean_motion_ddot": 0,
        "tle_line1": "1 30334U 99025AAV 25339.77272110  .00002494  00000+0  18129-2 0  9998",
        "tle_line2": "2 30334  99.0217  79.5339 0144801   1.0989 124.9955 13.92343961951241"
      },
      "geometry": {
        "type": "Point",
        "coordinates": [
          76.29898671599304,
          22.881672672159198
        ]
      }
    },
    {
      "type": "Feature",
      "properties": {
        "norad_id": 30335,
        "name": "FENGYUN 1C DEB",
        "group": "fengyun-1c-debris",
        "lat": 25.70441360665147,
        "lon": -32.47961101042053,
        "alt_km": 939.775717159956,
        "timestamp": "2025-12-06T09:34:17.189414+00:00",
        "meta_object_name": "FENGYUN 1C DEB",
        "meta_object_id": "1999-025AAW",
        "meta_epoch": "2025-12-05T23:28:11.417088",
        "meta_mean_motion": 14.0135753,
        "meta_eccentricity": 0.01324745,
        "meta_inclination": 98.905,
        "meta_ra_of_asc_node": 331.4379,
        "meta_arg_of_pericenter": 150.3582,
        "meta_mean_anomaly": 274.8378,
        "meta_ephemeris_type": 0,
        "meta_classification_type": "U",
        "meta_norad_cat_id": 30335,
        "meta_element_set_no": 999,
        "meta_rev_at_epoch": 96496,
        "meta_bstar": 0.00019668139,
        "meta_mean_motion_dot": 2.78e-06,
        "meta_mean_motion_ddot": 0,
        "tle_line1": "1 30335U 99025AAW 25339.97790992  .00000278  00000+0  19668-3 0  9992",
        "tle_line2": "2 30335  98.9050 331.4379 0132474 150.3582 274.8378 14.01357530964964"
      },
      "geometry": {
        "type": "Point",
        "coordinates": [
          -32.47961101042053,
          25.70441360665147
        ]
      }
    },
    {
      "type": "Feature",
      "properties": {
        "norad_id": 30336,
        "name": "FENGYUN 1C DEB",
        "group": "fengyun-1c-debris",
        "lat": -3.611030322937014,
        "lon": -179.01360204487665,
        "alt_km": 860.1867049299508,
        "timestamp": "2025-12-06T09:34:17.189424+00:00",
        "meta_object_name": "FENGYUN 1C DEB",
        "meta_object_id": "1999-025AAX",
        "meta_epoch": "2025-12-05T13:07:08.654880",
        "meta_mean_motion": 14.1928943,
        "meta_eccentricity": 0.00439201,
        "meta_inclination": 98.6012,
        "meta_ra_of_asc_node": 0.7064,
        "meta_arg_of_pericenter": 29.2474,
        "meta_mean_anomaly": 122.369,
        "meta_ephemeris_type": 0,
        "meta_classification_type": "U",
        "meta_norad_cat_id": 30336,
        "meta_element_set_no": 999,
        "meta_rev_at_epoch": 97500,
        "meta_bstar": 0.00058857473,
        "meta_mean_motion_dot": 1.204e-05,
        "meta_mean_motion_ddot": 0,
        "tle_line1": "1 30336U 99025AAX 25339.54662795  .00001204  00000+0  58857-3 0  9998",
        "tle_line2": "2 30336  98.6012   0.7064 0043920  29.2474 122.3690 14.19289430975001"
      },
      "geometry": {
        "type": "Point",
        "coordinates": [
          -179.01360204487665,
          -3.611030322937014
        ]
      }
    },
    {
      "type": "Feature",
      "properties": {
        "norad_id": 30338,
        "name": "FENGYUN 1C DEB",
        "group": "fengyun-1c-debris",
        "lat": -71.1580396923209,
        "lon": 75.95946454084655,
        "alt_km": 682.5512126609601,
        "timestamp": "2025-12-06T09:34:17.189434+00:00",
        "meta_object_name": "FENGYUN 1C DEB",
        "meta_object_id": "1999-025AAZ",
        "meta_epoch": "2025-12-05T23:07:35.623200",
        "meta_mean_motion": 14.47387282,
        "meta_eccentricity": 0.02720704,
        "meta_inclination": 98.46,
        "meta_ra_of_asc_node": 49.6652,
        "meta_arg_of_pericenter": 214.4789,
        "meta_mean_anomaly": 323.1249,
        "meta_ephemeris_type": 0,
        "meta_classification_type": "U",
        "meta_norad_cat_id": 30338,
        "meta_element_set_no": 999,
        "meta_rev_at_epoch": 98046,
        "meta_bstar": 0.0019588979,
        "meta_mean_motion_dot": 0.00011417,
        "meta_mean_motion_ddot": 0,
        "tle_line1": "1 30338U 99025AAZ 25339.96360675  .00011417  00000+0  19589-2 0  9993",
        "tle_line2": "2 30338  98.4600  49.6652 0272070 214.4789 323.1249 14.47387282980468"
      },
      "geometry": {
        "type": "Point",
        "coordinates": [
          75.95946454084655,
          -71.1580396923209
        ]
      }
    },
    {
      "type": "Feature",
      "properties": {
        "norad_id": 30339,
        "name": "FENGYUN 1C DEB",
        "group": "fengyun-1c-debris",
        "lat": 0.9540116252595958,
        "lon": 86.39633883359215,
        "alt_km": 771.3624894678887,
        "timestamp": "2025-12-06T09:34:17.189444+00:00",
        "meta_object_name": "FENGYUN 1C DEB",
        "meta_object_id": "1999-025ABA",
        "meta_epoch": "2025-12-05T13:36:18.311040",
        "meta_mean_motion": 14.37988,
        "meta_eccentricity": 0.00217565,
        "meta_inclination": 98.9749,
        "meta_ra_of_asc_node": 85.6786,
        "meta_arg_of_pericenter": 106.6223,
        "meta_mean_anomaly": 270.4077,
        "meta_ephemeris_type": 0,
        "meta_classification_type": "U",
        "meta_norad_cat_id": 30339,
        "meta_element_set_no": 999,
        "meta_rev_at_epoch": 97324,
        "meta_bstar": 0.0050868843,
        "meta_mean_motion_dot": 0.00015411,
        "meta_mean_motion_ddot": 0,
        "tle_line1": "1 30339U 99025ABA 25339.56687860  .00015411  00000+0  50869-2 0  9992",
        "tle_line2": "2 30339  98.9749  85.6786 0021756 106.6223 270.4077 14.37988000973249"
      },
      "geometry": {
        "type": "Point",
        "coordinates": [
          86.39633883359215,
          0.9540116252595958
        ]
      }
    },
    {
      "type": "Feature",
      "properties": {
        "norad_id": 30340,
        "name": "FENGYUN 1C DEB",
        "group": "fengyun-1c-debris",
        "lat": -80.74003713495422,
        "lon": 113.66659309487615,
        "alt_km": 936.6703646471351,
        "timestamp": "2025-12-06T09:34:17.189454+00:00",
        "meta_object_name": "FENGYUN 1C DEB",
        "meta_object_id": "1999-025ABB",
        "meta_epoch": "2025-12-05T15:48:23.230944",
        "meta_mean_motion": 14.04593886,
        "meta_eccentricity": 0.01459365,
        "meta_inclination": 99.0024,
        "meta_ra_of_asc_node": 36.4433,
        "meta_arg_of_pericenter": 154.4459,
        "meta_mean_anomaly": 335.4257,
        "meta_ephemeris_type": 0,
        "meta_classification_type": "U",
        "meta_norad_cat_id": 30340,
        "meta_element_set_no": 999,
        "meta_rev_at_epoch": 96681,
        "meta_bstar": 6.5713378e-05,
        "meta_mean_motion_dot": 7.2e-07,
        "meta_mean_motion_ddot": 0,
        "tle_line1": "1 30340U 99025ABB 25339.65860221  .00000072  00000+0  65713-4 0  9991",
        "tle_line2": "2 30340  99.0024  36.4433 0145936 154.4459 335.4257 14.04593886966816"
      },
      "geometry": {
        "type": "Point",
        "coordinates": [
          113.66659309487615,
          -80.74003713495422
        ]
      }
    },
    {
      "type": "Feature",
      "properties": {
        "norad_id": 30341,
        "name": "FENGYUN 1C DEB",
        "group": "fengyun-1c-debris",
        "lat": 12.764653881719196,
        "lon": 50.12813093635538,
        "alt_km": 780.7011104216272,
        "timestamp": "2025-12-06T09:34:17.189464+00:00",
        "meta_object_name": "FENGYUN 1C DEB",
        "meta_object_id": "1999-025ABC",
        "meta_epoch": "2025-12-05T16:18:45.557280",
        "meta_mean_motion": 14.33919541,
        "meta_eccentricity": 0.00496545,
        "meta_inclination": 99.2184,
        "meta_ra_of_asc_node": 227.2538,
        "meta_arg_of_pericenter": 77.1446,
        "meta_mean_anomaly": 339.1415,
        "meta_ephemeris_type": 0,
        "meta_classification_type": "U",
        "meta_norad_cat_id": 30341,
        "meta_element_set_no": 999,
        "meta_rev_at_epoch": 96980,
        "meta_bstar": 0.0052746744,
        "meta_mean_motion_dot": 0.0001489,
        "meta_mean_motion_ddot": 0,
        "tle_line1": "1 30341U 99025ABC 25339.67969395  .00014890  00000+0  52747-2 0  9990",
        "tle_line2": "2 30341  99.2184 227.2538 0049654  77.1446 339.1415 14.33919541969800"
      },
      "geometry": {
        "type": "Point",
        "coordinates": [
          50.12813093635538,
          12.764653881719196
        ]
      }
    }
  ]
}